[{"OBJECT_NAME":"JILIN-1 08","OBJECT_ID":"2018-008F","EPOCH":"2026-03-09T22:37:53.184288","MEAN_MOTION":15.32205976,"ECCENTRICITY":0.00081321,"INCLINATION":97.1902,"RA_OF_ASC_NODE":90.9961,"ARG_OF_PERICENTER":76.0646,"MEAN_ANOMALY":284.15,"EPHEMERIS_TYPE":0,"CLASSIFICATION_TYPE":"U","NORAD_CAT_ID":43160,"ELEMENT_SET_NO":999,"REV_AT_EPOCH":44974,"BSTAR":0.00036689195,"MEAN_MOTION_DOT":0.00011349,"MEAN_MOTION_DDOT":0},{"OBJECT_NAME":"STARLINK-30580","OBJECT_ID":"2023-161U","EPOCH":"2026-03-09T13:15:27.480960","MEAN_MOTION":15.30197147,"ECCENTRICITY":0.00013868,"INCLINATION":53.1604,"RA_OF_ASC_NODE":165.9333,"ARG_OF_PERICENTER":87.8627,"MEAN_ANOMALY":272.2532,"EPHEMERIS_TYPE":0,"CLASSIFICATION_TYPE":"U","NORAD_CAT_ID":58115,"ELEMENT_SET_NO":999,"REV_AT_EPOCH":13439,"BSTAR":-7.8229291e-5,"MEAN_MOTION_DOT":-2.675e-5,"MEAN_MOTION_DDOT":0}]
